[{"OBJECT_NAME":"STARLINK-4086","OBJECT_ID":"2022-062D","EPOCH":"2026-03-09T07:18:56.755584","MEAN_MOTION":15.08842839,"ECCENTRICITY":0.00015258,"INCLINATION":53.218,"RA_OF_ASC_NODE":35.8482,"ARG_OF_PERICENTER":81.2695,"MEAN_ANOMALY":278.8469,"EPHEMERIS_TYPE":0,"CLASSIFICATION_TYPE":"U","NORAD_CAT_ID":52833,"ELEMENT_SET_NO":999,"REV_AT_EPOCH":20572,"BSTAR":-3.1822303e-5,"MEAN_MOTION_DOT":-7.94e-6,"MEAN_MOTION_DDOT":0},{"OBJECT_NAME":"NANOFF A","OBJECT_ID":"2023-185T","EPOCH":"2026-03-09T23:34:34.415328","MEAN_MOTION":15.11542977,"ECCENTRICITY":0.00086783,"INCLINATION":97.5359,"RA_OF_ASC_NODE":137.8345,"ARG_OF_PERICENTER":292.8968,"MEAN_ANOMALY":67.1346,"EPHEMERIS_TYPE":0,"CLASSIFICATION_TYPE":"U","NORAD_CAT_ID":58810,"ELEMENT_SET_NO":999,"REV_AT_EPOCH":11805,"BSTAR":0.00027314844,"MEAN_MOTION_DOT":4.57e-5,"MEAN_MOTION_DDOT":0}]
